STARLINK-1202           
1 45183U 20012F   26068.29662031 -.00000628  00000+0 -90785-5 0  9998
2 45183  53.1616  41.0757 0001576  83.8145 276.3036 15.30193024334899
ION SCV-008             
1 55051U 23001AU  26068.82429008  .00008336  00000+0  31423-3 0  9992
2 55051  97.5676 163.6060 0015192   8.5420 351.6074 15.27226640176169
