[{"OBJECT_NAME":"STARLINK-1202","OBJECT_ID":"2020-012F","EPOCH":"2026-03-09T07:07:07.994784","MEAN_MOTION":15.30193024,"ECCENTRICITY":0.00015762,"INCLINATION":53.1616,"RA_OF_ASC_NODE":41.0757,"ARG_OF_PERICENTER":83.8145,"MEAN_ANOMALY":276.3036,"EPHEMERIS_TYPE":0,"CLASSIFICATION_TYPE":"U","NORAD_CAT_ID":45183,"ELEMENT_SET_NO":999,"REV_AT_EPOCH":33489,"BSTAR":-9.078485e-6,"MEAN_MOTION_DOT":-6.28e-6,"MEAN_MOTION_DDOT":0},{"OBJECT_NAME":"ION SCV-008","OBJECT_ID":"2023-001AU","EPOCH":"2026-03-09T19:46:58.662912","MEAN_MOTION":15.2722664,"ECCENTRICITY":0.00151921,"INCLINATION":97.5676,"RA_OF_ASC_NODE":163.606,"ARG_OF_PERICENTER":8.542,"MEAN_ANOMALY":351.6074,"EPHEMERIS_TYPE":0,"CLASSIFICATION_TYPE":"U","NORAD_CAT_ID":55051,"ELEMENT_SET_NO":999,"REV_AT_EPOCH":17616,"BSTAR":0.00031422806,"MEAN_MOTION_DOT":8.336e-5,"MEAN_MOTION_DDOT":0}]
